GSAT0222 (GALILEO 26)   
1 43565U 18060B   26086.74923849 -.00000097  00000+0  00000+0 0  9991
2 43565  57.1988 343.9851 0003423 288.4050  71.5917  1.70475080 47828
